start=new Date('2022-04-11T00:00:00.000Z').valueOf();
sats=[{"REV_AT_EPOCH":"6768","RA_OF_ASC_NODE":"355.9191","TLE_LINE1":"1 47362U 21005P   22100.85287240  .00002980  00000-0  21882-3 0  9994","BSTAR":"0.00021882000000","TIME_SYSTEM":"UTC","DECAY_DATE":null,"SEMIMAJOR_AXIS":"6925.308","COUNTRY_CODE":"US","SITE":"AFETR","EPHEMERIS_TYPE":"0","MEAN_MOTION_DDOT":"0.0000000000000","CLASSIFICATION_TYPE":"U","OBJECT_TYPE":"PAYLOAD","MEAN_ELEMENT_THEORY":"SGP4","INCLINATION":"53.0551","MEAN_ANOMALY":"299.8109","FILE":"3396586","OBJECT_ID":"2021-005P","ARG_OF_PERICENTER":"60.3039","TLE_LINE2":"2 47362  53.0551 355.9191 0001593  60.3039 299.8109 15.06413116 67688","EPOCH":"2022-04-10T20:28:08.175360","OBJECT_NAME":"STARLINK-2076","ECCENTRICITY":"0.00015930","LAUNCH_DATE":"2021-01-20","NORAD_CAT_ID":"47362","MEAN_MOTION_DOT":"0.00002980","RCS_SIZE":"LARGE","ELEMENT_SET_NO":"999","PERIOD":"95.591","PERIAPSIS":"546.070","MEAN_MOTION":"15.06413116","APOAPSIS":"548.277","GP_ID":"200942020","REF_FRAME":"TEME","CENTER_NAME":"EARTH"},{"REV_AT_EPOCH":"6768","RA_OF_ASC_NODE":"355.8893","BSTAR":"0.00003383500000","TLE_LINE1":"1 47363U 21005Q   22100.85655658  .00000223  00000-0  33835-4 0  9997","TIME_SYSTEM":"UTC","DECAY_DATE":null,"SEMIMAJOR_AXIS":"6925.314","COUNTRY_CODE":"US","SITE":"AFETR","MEAN_MOTION_DDOT":"0.0000000000000","EPHEMERIS_TYPE":"0","CLASSIFICATION_TYPE":"U","OBJECT_TYPE":"PAYLOAD","MEAN_ELEMENT_THEORY":"SGP4","MEAN_ANOMALY":"286.7921","INCLINATION":"53.0562","FILE":"3396586","OBJECT_ID":"2021-005Q","ARG_OF_PERICENTER":"73.3230","EPOCH":"2022-04-10T20:33:26.488512","TLE_LINE2":"2 47363  53.0562 355.8893 0001482  73.3230 286.7921 15.06411192 67682","OBJECT_NAME":"STARLINK-2077","ECCENTRICITY":"0.00014820","LAUNCH_DATE":"2021-01-20","NORAD_CAT_ID":"47363","MEAN_MOTION_DOT":"0.00000223","RCS_SIZE":"LARGE","ELEMENT_SET_NO":"999","PERIOD":"95.591","PERIAPSIS":"546.153","MEAN_MOTION":"15.06411192","APOAPSIS":"548.206","GP_ID":"200940768","REF_FRAME":"TEME","CENTER_NAME":"EARTH"},{"COUNTRY_CODE":"US","SEMIMAJOR_AXIS":"6717.509","SITE":"AFETR","BSTAR":"0.00015162000000","TLE_LINE1":"1 47365U 21005S   22100.69417328  .00024414  00000-0  15162-3 0  9991","REV_AT_EPOCH":"7029","RA_OF_ASC_NODE":"168.1867","TIME_SYSTEM":"UTC","DECAY_DATE":null,"OBJECT_ID":"2021-005S","FILE":"3396586","OBJECT_TYPE":"PAYLOAD","MEAN_ELEMENT_THEORY":"SGP4","MEAN_ANOMALY":"73.5274","INCLINATION":"53.0362","ECCENTRICITY":"0.00087070","LAUNCH_DATE":"2021-01-20","ARG_OF_PERICENTER":"286.4788","OBJECT_NAME":"STARLINK-2080","TLE_LINE2":"2 47365  53.0362 168.1867 0008707 286.4788  73.5274 15.76849936 70292","EPOCH":"2022-04-10T16:39:36.571392","MEAN_MOTION_DDOT":"0.0000000000000","EPHEMERIS_TYPE":"0","CLASSIFICATION_TYPE":"U","ELEMENT_SET_NO":"999","PERIAPSIS":"333.525","PERIOD":"91.321","NORAD_CAT_ID":"47365","RCS_SIZE":"LARGE","MEAN_MOTION_DOT":"0.00024414","REF_FRAME":"TEME","CENTER_NAME":"EARTH","MEAN_MOTION":"15.76849936","APOAPSIS":"345.223","GP_ID":"200941018"},{"RCS_SIZE":"LARGE","MEAN_MOTION_DOT":"0.00002690","NORAD_CAT_ID":"47366","ELEMENT_SET_NO":"999","PERIAPSIS":"545.995","PERIOD":"95.592","GP_ID":"200941269","MEAN_MOTION":"15.06406584","APOAPSIS":"548.392","CENTER_NAME":"EARTH","REF_FRAME":"TEME","TIME_SYSTEM":"UTC","DECAY_DATE":null,"TLE_LINE1":"1 47366U 21005T   22100.88236981  .00002690  00000-0  19939-3 0  9995","BSTAR":"0.00019939000000","RA_OF_ASC_NODE":"355.7904","REV_AT_EPOCH":"6768","SITE":"AFETR","COUNTRY_CODE":"US","SEMIMAJOR_AXIS":"6925.328","CLASSIFICATION_TYPE":"U","EPHEMERIS_TYPE":"0","MEAN_MOTION_DDOT":"0.0000000000000","ECCENTRICITY":"0.00017310","LAUNCH_DATE":"2021-01-20","ARG_OF_PERICENTER":"63.4576","TLE_LINE2":"2 47366  53.0558 355.7904 0001731  63.4576 296.6590 15.06406584 67683","EPOCH":"2022-04-10T21:10:36.751584","OBJECT_NAME":"STARLINK-2081","OBJECT_ID":"2021-005T","FILE":"3396586","INCLINATION":"53.0558","OBJECT_TYPE":"PAYLOAD","MEAN_ELEMENT_THEORY":"SGP4","MEAN_ANOMALY":"296.6590"},{"SITE":"AFETR","SEMIMAJOR_AXIS":"6925.312","COUNTRY_CODE":"US","DECAY_DATE":null,"TIME_SYSTEM":"UTC","RA_OF_ASC_NODE":"355.9792","REV_AT_EPOCH":"6768","TLE_LINE1":"1 47367U 21005U   22100.84181650  .00001354  00000-0  10978-3 0  9994","BSTAR":"0.00010978000000","EPOCH":"2022-04-10T20:12:12.945600","TLE_LINE2":"2 47367  53.0546 355.9792 0001769  63.9493 296.1678 15.06411822 67685","OBJECT_NAME":"STARLINK-2082","ARG_OF_PERICENTER":"63.9493","LAUNCH_DATE":"2021-01-20","ECCENTRICITY":"0.00017690","MEAN_ANOMALY":"296.1678","OBJECT_TYPE":"PAYLOAD","MEAN_ELEMENT_THEORY":"SGP4","INCLINATION":"53.0546","OBJECT_ID":"2021-005U","FILE":"3396586","CLASSIFICATION_TYPE":"U","EPHEMERIS_TYPE":"0","MEAN_MOTION_DDOT":"0.0000000000000","PERIAPSIS":"545.952","PERIOD":"95.591","ELEMENT_SET_NO":"999","MEAN_MOTION_DOT":"0.00001354","RCS_SIZE":"LARGE","NORAD_CAT_ID":"47367","CENTER_NAME":"EARTH","REF_FRAME":"TEME","GP_ID":"200941520","APOAPSIS":"548.402","MEAN_MOTION":"15.06411822"},{"ELEMENT_SET_NO":"999","PERIAPSIS":"546.198","PERIOD":"95.592","NORAD_CAT_ID":"47368","RCS_SIZE":"LARGE","MEAN_MOTION_DOT":"0.00001589","REF_FRAME":"TEME","CENTER_NAME":"EARTH","MEAN_MOTION":"15.06405814","APOAPSIS":"548.194","GP_ID":"200940268","COUNTRY_CODE":"US","SEMIMAJOR_AXIS":"6925.331","SITE":"AFETR","TLE_LINE1":"1 47368U 21005V   22100.83445382  .00001589  00000-0  12551-3 0  9998","BSTAR":"0.00012551000000","RA_OF_ASC_NODE":"355.9924","REV_AT_EPOCH":"6768","TIME_SYSTEM":"UTC","DECAY_DATE":null,"FILE":"3396586","OBJECT_ID":"2021-005V","OBJECT_TYPE":"PAYLOAD","MEAN_ELEMENT_THEORY":"SGP4","MEAN_ANOMALY":"291.2462","INCLINATION":"53.0555","ECCENTRICITY":"0.00014410","LAUNCH_DATE":"2021-01-20","ARG_OF_PERICENTER":"68.8681","TLE_LINE2":"2 47368  53.0555 355.9924 0001441  68.8681 291.2462 15.06405814 67684","OBJECT_NAME":"STARLINK-2084","EPOCH":"2022-04-10T20:01:36.810048","EPHEMERIS_TYPE":"0","MEAN_MOTION_DDOT":"0.0000000000000","CLASSIFICATION_TYPE":"U"},{"RCS_SIZE":"LARGE","MEAN_MOTION_DOT":"0.00000891","NORAD_CAT_ID":"47369","PERIOD":"95.592","PERIAPSIS":"546.172","ELEMENT_SET_NO":"999","GP_ID":"200940518","APOAPSIS":"548.275","MEAN_MOTION":"15.06396794","CENTER_NAME":"EARTH","REF_FRAME":"TEME","DECAY_DATE":null,"TIME_SYSTEM":"UTC","TLE_LINE1":"1 47369U 21005W   22100.90633370  .00000891  00000-0  78740-4 0  9991","BSTAR":"0.00007874000000","RA_OF_ASC_NODE":"335.6894","REV_AT_EPOCH":"6797","SITE":"AFETR","COUNTRY_CODE":"US","SEMIMAJOR_AXIS":"6925.358","CLASSIFICATION_TYPE":"U","EPHEMERIS_TYPE":"0","MEAN_MOTION_DDOT":"0.0000000000000","LAUNCH_DATE":"2021-01-20","ECCENTRICITY":"0.00015180","EPOCH":"2022-04-10T21:45:07.231680","TLE_LINE2":"2 47369  53.0548 335.6894 0001518  61.3393 298.7748 15.06396794 67978","OBJECT_NAME":"STARLINK-2085","ARG_OF_PERICENTER":"61.3393","FILE":"3396586","OBJECT_ID":"2021-005W","OBJECT_TYPE":"PAYLOAD","INCLINATION":"53.0548","MEAN_ELEMENT_THEORY":"SGP4","MEAN_ANOMALY":"298.7748"},{"SITE":"AFETR","COUNTRY_CODE":"US","SEMIMAJOR_AXIS":"6925.320","TIME_SYSTEM":"UTC","DECAY_DATE":null,"TLE_LINE1":"1 47370U 21005X   22100.86393546  .00004279  00000-0  30590-3 0  9990","BSTAR":"0.00030590000000","RA_OF_ASC_NODE":"315.8728","REV_AT_EPOCH":"6825","ECCENTRICITY":"0.00022420","LAUNCH_DATE":"2021-01-20","ARG_OF_PERICENTER":"39.3487","TLE_LINE2":"2 47370  53.0550 315.8728 0002242  39.3487 320.7665 15.06409359 68251","EPOCH":"2022-04-10T20:44:04.023744","OBJECT_NAME":"STARLINK-2086","OBJECT_ID":"2021-005X","FILE":"3396586","OBJECT_TYPE":"PAYLOAD","MEAN_ELEMENT_THEORY":"SGP4","MEAN_ANOMALY":"320.7665","INCLINATION":"53.0550","CLASSIFICATION_TYPE":"U","MEAN_MOTION_DDOT":"0.0000000000000","EPHEMERIS_TYPE":"0","ELEMENT_SET_NO":"999","PERIOD":"95.592","PERIAPSIS":"545.632","RCS_SIZE":"LARGE","MEAN_MOTION_DOT":"0.00004279","NORAD_CAT_ID":"47370","CENTER_NAME":"EARTH","REF_FRAME":"TEME","GP_ID":"200941770","MEAN_MOTION":"15.06409359","APOAPSIS":"548.738"},{"MEAN_MOTION_DOT":"-0.00000044","RCS_SIZE":"LARGE","NORAD_CAT_ID":"47371","PERIAPSIS":"546.101","PERIOD":"95.591","ELEMENT_SET_NO":"999","GP_ID":"200942021","APOAPSIS":"548.236","MEAN_MOTION":"15.06414698","CENTER_NAME":"EARTH","REF_FRAME":"TEME","DECAY_DATE":null,"TIME_SYSTEM":"UTC","REV_AT_EPOCH":"6768","RA_OF_ASC_NODE":"355.9347","BSTAR":"0.00001592500000","TLE_LINE1":"1 47371U 21005Y   22100.84918201 -.00000044  00000-0  15925-4 0  9993","SITE":"AFETR","SEMIMAJOR_AXIS":"6925.304","COUNTRY_CODE":"US","CLASSIFICATION_TYPE":"U","MEAN_MOTION_DDOT":"0.0000000000000","EPHEMERIS_TYPE":"0","EPOCH":"2022-04-10T20:22:49.325664","TLE_LINE2":"2 47371  53.0566 355.9347 0001541  65.5691 294.5459 15.06414698 67687","OBJECT_NAME":"STARLINK-2088","ARG_OF_PERICENTER":"65.5691","LAUNCH_DATE":"2021-01-20","ECCENTRICITY":"0.00015410","INCLINATION":"53.0566","OBJECT_TYPE":"PAYLOAD","MEAN_ELEMENT_THEORY":"SGP4","MEAN_ANOMALY":"294.5459","OBJECT_ID":"2021-005Y","FILE":"3396586"},{"MEAN_MOTION":"15.06416164","APOAPSIS":"548.141","GP_ID":"200940769","REF_FRAME":"TEME","CENTER_NAME":"EARTH","NORAD_CAT_ID":"47372","RCS_SIZE":"LARGE","MEAN_MOTION_DOT":"0.00001740","ELEMENT_SET_NO":"999","PERIAPSIS":"546.187","PERIOD":"95.591","EPHEMERIS_TYPE":"0","MEAN_MOTION_DDOT":"0.0000000000000","CLASSIFICATION_TYPE":"U","FILE":"3396586","OBJECT_ID":"2021-005Z","MEAN_ANOMALY":"279.7055","OBJECT_TYPE":"PAYLOAD","MEAN_ELEMENT_THEORY":"SGP4","INCLINATION":"53.0569","ECCENTRICITY":"0.00014110","LAUNCH_DATE":"2021-01-20","ARG_OF_PERICENTER":"80.4093","TLE_LINE2":"2 47372  53.0569 350.7860 0001411  80.4093 279.7055 15.06416164 67757","EPOCH":"2022-04-10T21:07:14.886624","OBJECT_NAME":"STARLINK-2089","TLE_LINE1":"1 47372U 21005Z   22100.88003341  .00001740  00000-0  13565-3 0  9998","BSTAR":"0.00013565000000","RA_OF_ASC_NODE":"350.7860","REV_AT_EPOCH":"6775","TIME_SYSTEM":"UTC","DECAY_DATE":null,"COUNTRY_CODE":"US","SEMIMAJOR_AXIS":"6925.299","SITE":"AFETR"}];
